<?xml version="1.0" encoding="UTF-8"?>
<ndm xmlns:xsi="http://www.w3.org/2001/XMLSchema-instance" xsi:noNamespaceSchemaLocation="https://sanaregistry.org/r/ndmxml_unqualified/ndmxml-2.0.0-master-2.0.xsd">
<omm id="CCSDS_OMM_VERS" version="2.0">
<header><CREATION_DATE/><ORIGINATOR/></header><body><segment><metadata><OBJECT_NAME>COSMOS 2242</OBJECT_NAME><OBJECT_ID>1993-024A</OBJECT_ID><CENTER_NAME>EARTH</CENTER_NAME><REF_FRAME>TEME</REF_FRAME><TIME_SYSTEM>UTC</TIME_SYSTEM><MEAN_ELEMENT_THEORY>SGP4</MEAN_ELEMENT_THEORY></metadata><data><meanElements><EPOCH>2022-06-04T22:11:09.559680</EPOCH><MEAN_MOTION>14.88548338</MEAN_MOTION><ECCENTRICITY>.0017702</ECCENTRICITY><INCLINATION>82.5198</INCLINATION><RA_OF_ASC_NODE>131.0751</RA_OF_ASC_NODE><ARG_OF_PERICENTER>213.3987</ARG_OF_PERICENTER><MEAN_ANOMALY>146.6116</MEAN_ANOMALY></meanElements><tleParameters><EPHEMERIS_TYPE>0</EPHEMERIS_TYPE><CLASSIFICATION_TYPE>U</CLASSIFICATION_TYPE><NORAD_CAT_ID>22626</NORAD_CAT_ID><ELEMENT_SET_NO>999</ELEMENT_SET_NO><REV_AT_EPOCH>57554</REV_AT_EPOCH><BSTAR>.63535E-4</BSTAR><MEAN_MOTION_DOT>.617E-5</MEAN_MOTION_DOT><MEAN_MOTION_DDOT>0</MEAN_MOTION_DDOT></tleParameters></data></segment></body></omm>
<omm id="CCSDS_OMM_VERS" version="2.0">
<header><CREATION_DATE/><ORIGINATOR/></header><body><segment><metadata><OBJECT_NAME>SL-16 R/B</OBJECT_NAME><OBJECT_ID>1993-059B</OBJECT_ID><CENTER_NAME>EARTH</CENTER_NAME><REF_FRAME>TEME</REF_FRAME><TIME_SYSTEM>UTC</TIME_SYSTEM><MEAN_ELEMENT_THEORY>SGP4</MEAN_ELEMENT_THEORY></metadata><data><meanElements><EPOCH>2022-06-04T22:01:28.822944</EPOCH><MEAN_MOTION>14.16862524</MEAN_MOTION><ECCENTRICITY>.0016051</ECCENTRICITY><INCLINATION>70.9911</INCLINATION><RA_OF_ASC_NODE>27.2316</RA_OF_ASC_NODE><ARG_OF_PERICENTER>149.8437</ARG_OF_PERICENTER><MEAN_ANOMALY>210.3614</MEAN_ANOMALY></meanElements><tleParameters><EPHEMERIS_TYPE>0</EPHEMERIS_TYPE><CLASSIFICATION_TYPE>U</CLASSIFICATION_TYPE><NORAD_CAT_ID>22803</NORAD_CAT_ID><ELEMENT_SET_NO>999</ELEMENT_SET_NO><REV_AT_EPOCH>48492</REV_AT_EPOCH><BSTAR>-.70705E-4</BSTAR><MEAN_MOTION_DOT>-.19E-5</MEAN_MOTION_DOT><MEAN_MOTION_DDOT>0</MEAN_MOTION_DDOT></tleParameters></data></segment></body></omm>
<omm id="CCSDS_OMM_VERS" version="2.0">
<header><CREATION_DATE/><ORIGINATOR/></header><body><segment><metadata><OBJECT_NAME>ARIANE 40 R/B</OBJECT_NAME><OBJECT_ID>1993-061H</OBJECT_ID><CENTER_NAME>EARTH</CENTER_NAME><REF_FRAME>TEME</REF_FRAME><TIME_SYSTEM>UTC</TIME_SYSTEM><MEAN_ELEMENT_THEORY>SGP4</MEAN_ELEMENT_THEORY></metadata><data><meanElements><EPOCH>2022-06-05T01:53:17.433600</EPOCH><MEAN_MOTION>14.31555826</MEAN_MOTION><ECCENTRICITY>.0011204</ECCENTRICITY><INCLINATION>98.6639</INCLINATION><RA_OF_ASC_NODE>218.9054</RA_OF_ASC_NODE><ARG_OF_PERICENTER>22.4269</ARG_OF_PERICENTER><MEAN_ANOMALY>337.7401</MEAN_ANOMALY></meanElements><tleParameters><EPHEMERIS_TYPE>0</EPHEMERIS_TYPE><CLASSIFICATION_TYPE>U</CLASSIFICATION_TYPE><NORAD_CAT_ID>22830</NORAD_CAT_ID><ELEMENT_SET_NO>999</ELEMENT_SET_NO><REV_AT_EPOCH>49774</REV_AT_EPOCH><BSTAR>.43149E-4</BSTAR><MEAN_MOTION_DOT>.7E-6</MEAN_MOTION_DOT><MEAN_MOTION_DDOT>0</MEAN_MOTION_DDOT></tleParameters></data></segment></body></omm>
<omm id="CCSDS_OMM_VERS" version="2.0">
<header><CREATION_DATE/><ORIGINATOR/></header><body><segment><metadata><OBJECT_NAME>COSMOS 2278</OBJECT_NAME><OBJECT_ID>1994-023A</OBJECT_ID><CENTER_NAME>EARTH</CENTER_NAME><REF_FRAME>TEME</REF_FRAME><TIME_SYSTEM>UTC</TIME_SYSTEM><MEAN_ELEMENT_THEORY>SGP4</MEAN_ELEMENT_THEORY></metadata><data><meanElements><EPOCH>2022-06-04T17:37:59.715552</EPOCH><MEAN_MOTION>14.13861393</MEAN_MOTION><ECCENTRICITY>.0010169</ECCENTRICITY><INCLINATION>71.0507</INCLINATION><RA_OF_ASC_NODE>168.3579</RA_OF_ASC_NODE><ARG_OF_PERICENTER>315.4700</ARG_OF_PERICENTER><MEAN_ANOMALY>44.5604</MEAN_ANOMALY></meanElements><tleParameters><EPHEMERIS_TYPE>0</EPHEMERIS_TYPE><CLASSIFICATION_TYPE>U</CLASSIFICATION_TYPE><NORAD_CAT_ID>23087</NORAD_CAT_ID><ELEMENT_SET_NO>999</ELEMENT_SET_NO><REV_AT_EPOCH>45057</REV_AT_EPOCH><BSTAR>-.55028E-4</BSTAR><MEAN_MOTION_DOT>-.152E-5</MEAN_MOTION_DOT><MEAN_MOTION_DDOT>0</MEAN_MOTION_DDOT></tleParameters></data></segment></body></omm>
<omm id="CCSDS_OMM_VERS" version="2.0">
<header><CREATION_DATE/><ORIGINATOR/></header><body><segment><metadata><OBJECT_NAME>SL-16 R/B</OBJECT_NAME><OBJECT_ID>1994-023B</OBJECT_ID><CENTER_NAME>EARTH</CENTER_NAME><REF_FRAME>TEME</REF_FRAME><TIME_SYSTEM>UTC</TIME_SYSTEM><MEAN_ELEMENT_THEORY>SGP4</MEAN_ELEMENT_THEORY></metadata><data><meanElements><EPOCH>2022-06-04T12:29:53.193984</EPOCH><MEAN_MOTION>14.14714834</MEAN_MOTION><ECCENTRICITY>.0005081</ECCENTRICITY><INCLINATION>71.0012</INCLINATION><RA_OF_ASC_NODE>76.0161</RA_OF_ASC_NODE><ARG_OF_PERICENTER>242.6172</ARG_OF_PERICENTER><MEAN_ANOMALY>117.4434</MEAN_ANOMALY></meanElements><tleParameters><EPHEMERIS_TYPE>0</EPHEMERIS_TYPE><CLASSIFICATION_TYPE>U</CLASSIFICATION_TYPE><NORAD_CAT_ID>23088</NORAD_CAT_ID><ELEMENT_SET_NO>999</ELEMENT_SET_NO><REV_AT_EPOCH>45172</REV_AT_EPOCH><BSTAR>.14396E-3</BSTAR><MEAN_MOTION_DOT>.23E-5</MEAN_MOTION_DOT><MEAN_MOTION_DDOT>0</MEAN_MOTION_DDOT></tleParameters></data></segment></body></omm>
<omm id="CCSDS_OMM_VERS" version="2.0">
<header><CREATION_DATE/><ORIGINATOR/></header><body><segment><metadata><OBJECT_NAME>SL-16 R/B</OBJECT_NAME><OBJECT_ID>1994-074B</OBJECT_ID><CENTER_NAME>EARTH</CENTER_NAME><REF_FRAME>TEME</REF_FRAME><TIME_SYSTEM>UTC</TIME_SYSTEM><MEAN_ELEMENT_THEORY>SGP4</MEAN_ELEMENT_THEORY></metadata><data><meanElements><EPOCH>2022-06-05T03:01:24.767904</EPOCH><MEAN_MOTION>14.77031903</MEAN_MOTION><ECCENTRICITY>.0006886</ECCENTRICITY><INCLINATION>97.8935</INCLINATION><RA_OF_ASC_NODE>209.3251</RA_OF_ASC_NODE><ARG_OF_PERICENTER>8.8079</ARG_OF_PERICENTER><MEAN_ANOMALY>44.9332</MEAN_ANOMALY></meanElements><tleParameters><EPHEMERIS_TYPE>0</EPHEMERIS_TYPE><CLASSIFICATION_TYPE>U</CLASSIFICATION_TYPE><NORAD_CAT_ID>23343</NORAD_CAT_ID><ELEMENT_SET_NO>999</ELEMENT_SET_NO><REV_AT_EPOCH>48455</REV_AT_EPOCH><BSTAR>.27914E-4</BSTAR><MEAN_MOTION_DOT>.147E-5</MEAN_MOTION_DOT><MEAN_MOTION_DDOT>0</MEAN_MOTION_DDOT></tleParameters></data></segment></body></omm>
<omm id="CCSDS_OMM_VERS" version="2.0">
<header><CREATION_DATE/><ORIGINATOR/></header><body><segment><metadata><OBJECT_NAME>SL-16 R/B</OBJECT_NAME><OBJECT_ID>1994-077B</OBJECT_ID><CENTER_NAME>EARTH</CENTER_NAME><REF_FRAME>TEME</REF_FRAME><TIME_SYSTEM>UTC</TIME_SYSTEM><MEAN_ELEMENT_THEORY>SGP4</MEAN_ELEMENT_THEORY></metadata><data><meanElements><EPOCH>2022-06-05T00:49:32.749248</EPOCH><MEAN_MOTION>14.15259636</MEAN_MOTION><ECCENTRICITY>.0000572</ECCENTRICITY><INCLINATION>70.9835</INCLINATION><RA_OF_ASC_NODE>1.6133</RA_OF_ASC_NODE><ARG_OF_PERICENTER>101.6386</ARG_OF_PERICENTER><MEAN_ANOMALY>258.4801</MEAN_ANOMALY></meanElements><tleParameters><EPHEMERIS_TYPE>0</EPHEMERIS_TYPE><CLASSIFICATION_TYPE>U</CLASSIFICATION_TYPE><NORAD_CAT_ID>23405</NORAD_CAT_ID><ELEMENT_SET_NO>999</ELEMENT_SET_NO><REV_AT_EPOCH>42213</REV_AT_EPOCH><BSTAR>.17974E-3</BSTAR><MEAN_MOTION_DOT>.302E-5</MEAN_MOTION_DOT><MEAN_MOTION_DDOT>0</MEAN_MOTION_DDOT></tleParameters></data></segment></body></omm>
<omm id="CCSDS_OMM_VERS" version="2.0">
<header><CREATION_DATE/><ORIGINATOR/></header><body><segment><metadata><OBJECT_NAME>ERS-2</OBJECT_NAME><OBJECT_ID>1995-021A</OBJECT_ID><CENTER_NAME>EARTH</CENTER_NAME><REF_FRAME>TEME</REF_FRAME><TIME_SYSTEM>UTC</TIME_SYSTEM><MEAN_ELEMENT_THEORY>SGP4</MEAN_ELEMENT_THEORY></metadata><data><meanElements><EPOCH>2022-06-04T17:20:09.624768</EPOCH><MEAN_MOTION>15.26617413</MEAN_MOTION><ECCENTRICITY>.0001887</ECCENTRICITY><INCLINATION>98.5056</INCLINATION><RA_OF_ASC_NODE>59.3613</RA_OF_ASC_NODE><ARG_OF_PERICENTER>216.2700</ARG_OF_PERICENTER><MEAN_ANOMALY>143.8408</MEAN_ANOMALY></meanElements><tleParameters><EPHEMERIS_TYPE>0</EPHEMERIS_TYPE><CLASSIFICATION_TYPE>U</CLASSIFICATION_TYPE><NORAD_CAT_ID>23560</NORAD_CAT_ID><ELEMENT_SET_NO>999</ELEMENT_SET_NO><REV_AT_EPOCH>45137</REV_AT_EPOCH><BSTAR>.147E-3</BSTAR><MEAN_MOTION_DOT>.3758E-4</MEAN_MOTION_DOT><MEAN_MOTION_DDOT>0</MEAN_MOTION_DDOT></tleParameters></data></segment></body></omm>

</ndm>
