COSMOS 2242             
1 22626U 93024A   22155.92441620  .00000617  00000+0  63535-4 0  9998
2 22626  82.5198 131.0751 0017702 213.3987 146.6116 14.88548338575544
SL-16 R/B               
1 22803U 93059B   22155.91769471 -.00000190  00000+0 -70705-4 0  9994
2 22803  70.9911  27.2316 0016051 149.8437 210.3614 14.16862524484927
ARIANE 40 R/B           
1 22830U 93061H   22156.07867400  .00000070  00000+0  43149-4 0  9993
2 22830  98.6639 218.9054 0011204  22.4269 337.7401 14.31555826497746
COSMOS 2278             
1 23087U 94023A   22155.73471893 -.00000152  00000+0 -55028-4 0  9998
2 23087  71.0507 168.3579 0010169 315.4700  44.5604 14.13861393450571
SL-16 R/B               
1 23088U 94023B   22155.52075456  .00000230  00000+0  14396-3 0  9998
2 23088  71.0012  76.0161 0005081 242.6172 117.4434 14.14714834451723
SL-16 R/B               
1 23343U 94074B   22156.12598111  .00000147  00000+0  27914-4 0  9991
2 23343  97.8935 209.3251 0006886   8.8079  44.9332 14.77031903484556
SL-16 R/B               
1 23405U 94077B   22156.03440682  .00000302  00000+0  17974-3 0  9999
2 23405  70.9835   1.6133 0000572 101.6386 258.4801 14.15259636422133
ERS-2                   
1 23560U 95021A   22155.72233362  .00003758  00000+0  14700-3 0  9993
2 23560  98.5056  59.3613 0001887 216.2700 143.8408 15.26617413451374
